SAR-LUPE 2              
1 31797U 07030A   26157.56044500  .00039231  00000+0  73745-3 0  9998
2 31797  98.1029 260.6930 0008834 153.8039 206.3658 15.48442254 55296
SAPPHIRE                
1 39088U 13009C   26157.63489730  .00000117  00000+0  56050-4 0  9990
2 39088  98.4259 337.3416 0009991 281.7706  78.2359 14.35237660695060
PRAETORIAN SDA_602      
1 65565U 25203A   26157.54402737  .00000049  00000+0  32784-4 0  9992
2 65565  81.3038  20.6288 0005264 215.2982 144.7826 13.84341997 37229
PRAETORIAN SDA_603      
1 65566U 25203B   26157.35045444  .00000123  00000+0  10005-3 0  9994
2 65566  81.3044  20.7172 0008848 218.5644 141.4882 13.83904757 37204
PRAETORIAN SDA_604      
1 65567U 25203C   26157.36345716  .00000124  00000+0  10310-3 0  9991
2 65567  81.3060  21.1006 0004767 223.7881 136.2898 13.83046640 37185
PRAETORIAN SDA_605      
1 65568U 25203D   26157.33181149  .00000077  00000+0  59248-4 0  9998
2 65568  81.3025  20.8033 0007538 214.2802 145.7869 13.83433566 37191
PRAETORIAN SDA_606      
1 65569U 25203E   26157.09717434  .00000087  00000+0  68376-4 0  9997
2 65569  81.3062  21.2375 0005173 213.3441 146.7390 13.83406533 37159
PRAETORIAN SDA_607      
1 65570U 25203F   26157.54590222  .00000144  00000+0  11806-3 0  9992
2 65570  81.3045  20.5019 0008141 218.4660 141.5917 13.84283844 37232
PRAETORIAN SDA_608      
1 65571U 25203G   26157.37510353  .00000091  00000+0  71265-4 0  9998
2 65571  81.3013  20.8178 0005275 222.7322 137.3425 13.83816060 37198
PRAETORIAN SDA_609      
1 65572U 25203H   26157.38337582  .00000178  00000+0  14920-3 0  9991
2 65572  81.3058  20.7956 0006233 215.4309 144.6434 13.84284207 37206
PRAETORIAN SDA_610      
1 65573U 25203J   26156.34291110  .00000054  00000+0  38386-4 0  9999
2 65573  81.3015  21.7319 0005906 223.3033 136.7660 13.83851043 37055
PRAETORIAN SDA_611      
1 65574U 25203K   26157.35166620  .00000285  00000+0  24877-3 0  9994
2 65574  81.3017  20.9546 0004902 227.6145 132.4596 13.83308409 37185
PRAETORIAN SDA_612      
1 65575U 25203L   26157.35480010  .00000146  00000+0  11863-3 0  9994
2 65575  81.3037  20.5646 0008612 217.9234 142.1318 13.85037905 37214
PRAETORIAN SDA_613      
1 65576U 25203M   26157.35415271  .00000053  00000+0  37615-4 0  9993
2 65576  81.3007  20.9410 0005032 215.3155 144.7669 13.82764287 37182
PRAETORIAN SDA_614      
1 65577U 25203N   26157.34193926  .00000085  00000+0  64563-4 0  9990
2 65577  81.3020  20.6518 0006485 215.1338 144.9392 13.84777812 37217
PRAETORIAN SDA_615      
1 65578U 25203P   26157.31614832  .00000092  00000+0  71841-4 0  9997
2 65578  81.3032  20.6328 0008401 216.5510 143.5074 13.84435332 37206
PRAETORIAN SDA_616      
1 65579U 25203Q   26157.35055583  .00000131  00000+0  10828-3 0  9995
2 65579  81.3070  21.0939 0004803 225.4707 134.6057 13.83267366 37189
PRAETORIAN SDA_617      
1 65580U 25203R   26157.37123799  .00000096  00000+0  76743-4 0  9993
2 65580  81.3045  20.9068 0006728 215.3557 144.7153 13.83150129 37191
PRAETORIAN SDA_618      
1 65581U 25203S   26157.35628649  .00000125  00000+0  10050-3 0  9997
2 65581  81.3028  20.5295 0009112 219.0117 141.0383 13.84668861 37210
PRAETORIAN SDA_619      
1 65582U 25203T   26157.31317508  .00000150  00000+0  12507-3 0  9990
2 65582  81.3052  20.8490 0007552 216.8898 143.1740 13.83804946 37827
PRAETORIAN SDA_620      
1 65583U 25203U   26157.33969178  .00000145  00000+0  12096-3 0  9996
2 65583  81.3039  20.8440 0007057 211.7503 148.3229 13.83617744 37192
PRAETORIAN SDA_621      
1 65584U 25203V   26157.31491419  .00000093  00000+0  73050-4 0  9993
2 65584  81.3028  20.7889 0006809 209.4910 150.5864 13.83800494 37193
PRAETORIAN SDA_601      
1 65585U 25203W   26157.13589551  .00000204  00000+0  17567-3 0  9993
2 65585  81.3047  21.2388 0004781 229.1007 130.9735 13.83166920 37152
